     2.100          NAVIGATION                              RINEX VERSION / TYPE
fic2rin                                 03/21/2015 00:14:44 PGM / RUN BY / DATE
                                                            END OF HEADER
31 15  3 20 16  0  0.0  .320694874972D-03 -.909494701773D-12  .000000000000D+00
     .620000000000D+02 -.108718750000D+03  .442054127614D-08  .438542494347D+00
    -.584125518799D-05  .822507403791D-02  .751763582230D-05  .515374658203D+04
     .489600000000D+06  .122934579849D-06  .249181326621D+01 -.100582838058D-06
     .975751279112D+00  .243000000000D+03 -.529845685468D+00 -.828427364468D-08
    -.739316509786D-09  .100000000000D+01  .183600000000D+04  .000000000000D+00
     .240000000000D+01  .000000000000D+00 -.135041773319D-07  .620000000000D+02
     .482406000000D+06  .400000000000D+01
32 15  3 20 16  0  0.0 -.196596607566D-03  .943600753089D-11  .000000000000D+00
     .112000000000D+03  .476250000000D+02  .470341020163D-08  .108779781620D+01
     .252760946751D-05  .112913174089D-01  .132583081722D-04  .515356726074D+04
     .489600000000D+06  .707805156708D-07  .446933818782D+00  .186264514923D-06
     .947555192083D+00  .120468750000D+03  .318133129007D-01 -.808069373619D-08
     .216794744657D-09  .100000000000D+01  .183600000000D+04  .000000000000D+00
     .240000000000D+01  .630000000000D+02 -.372529029846D-08  .112000000000D+03
     .482406000000D+06  .400000000000D+01
32 15  3 20 15 58  8.0 -.196597073227D-03  .943600753089D-11  .000000000000D+00
     .400000000000D+01  .476562500000D+02  .470126725522D-08  .107919856868D+01
     .252760946751D-05  .112708494999D-01  .132601708174D-04  .515380908775D+04
     .489488000000D+06  .726431608200D-07  .446930398479D+00  .186264514923D-06
     .947554508900D+00  .120343750000D+03  .236756701638D-01 -.807640784338D-08
     .216437586923D-09  .100000000000D+01  .183600000000D+04  .000000000000D+00
     .240000000000D+01  .000000000000D+00 -.372529029846D-08  .400000000000D+01
     .487506000000D+06  .400000000000D+01
10 15  3 20 15 59 44.0 -.167883001268D-03 -.147792889038D-11  .000000000000D+00
     .000000000000D+00  .649687500000D+02  .472233956154D-08 -.183164957428D+01
     .313110649586D-05  .145830293186D-01  .130757689476D-04  .515367781067D+04
     .489584000000D+06  .210478901863D-06  .373599716259D+00 -.106170773506D-06
     .941925864296D+00  .113218750000D+03  .925310918502D+00 -.791032949697D-08
     .372872674501D-09  .100000000000D+01  .183600000000D+04  .000000000000D+00
     .240000000000D+01  .000000000000D+00 -.325962901115D-08  .000000000000D+00
     .488736000000D+06  .400000000000D+01
32 15  3 20 17 58  8.0 -.196529086679D-03  .943600753089D-11  .000000000000D+00
     .900000000000D+01  .491562500000D+02  .443697053192D-08  .212886585524D+01
     .262632966042D-05  .112710874528D-01  .146627426147D-04  .515381813240D+04
     .496688000000D+06 -.689178705215D-07  .446871957828D+00  .244006514549D-06
     .947556233681D+00  .850000000000D+02  .241037565668D-01 -.803462038848D-08
     .290369237901D-09  .100000000000D+01  .183600000000D+04  .000000000000D+00
     .240000000000D+01  .000000000000D+00 -.372529029846D-08  .900000000000D+01
     .489606000000D+06  .400000000000D+01
10 15  3 20 17 59 44.0 -.167893711478D-03 -.147792889038D-11  .000000000000D+00
     .400000000000D+01  .453125000000D+02  .469198115413D-08 -.781266644286D+00
     .260025262833D-05  .145833677379D-01  .129435211420D-04  .515368344879D+04
     .496784000000D+06  .102445483208D-06  .373542459109D+00  .279396772385D-06
     .941926563571D+00  .123687500000D+03  .925104865028D+00 -.827284459718D-08
     .242152943785D-09  .100000000000D+01  .183600000000D+04  .000000000000D+00
     .240000000000D+01  .000000000000D+00 -.325962901115D-08  .400000000000D+01
     .489606000000D+06  .400000000000D+01
 1 15  3 20 18  0  0.0 -.774348154664D-05  .454747350886D-12  .000000000000D+00
     .230000000000D+02 -.987500000000D+02  .466555148180D-08  .223079465778D+01
    -.506266951561D-05  .397262652405D-02  .702030956745D-05  .515366850662D+04
     .496800000000D+06 -.186264514923D-07 -.675916667374D+00 -.186264514923D-07
     .962026541570D+00  .243343750000D+03  .387304151424D+00 -.832356099544D-08
    -.554308803472D-09  .100000000000D+01  .183600000000D+04  .000000000000D+00
     .240000000000D+01  .000000000000D+00  .558793544769D-08  .230000000000D+02
     .489606000000D+06  .400000000000D+01
 2 15  3 20 18  0  0.0  .554736703634D-03  .227373675443D-11  .000000000000D+00
     .970000000000D+02 -.103000000000D+03  .493984862167D-08  .275367048511D+01
    -.533647835255D-05  .145360329188D-01  .698678195477D-05  .515379081535D+04
     .496800000000D+06 -.521540641785D-07 -.711992772877D+00 -.193715095520D-06
     .940607868733D+00  .232125000000D+03 -.229821805778D+01 -.824391482071D-08
    -.502163774280D-09  .100000000000D+01  .183600000000D+04  .000000000000D+00
     .340000000000D+01  .000000000000D+00 -.204890966415D-07  .970000000000D+02
     .489606000000D+06  .400000000000D+01
 3 15  3 20 18  0  0.0  .263542402536D-03  .164845914696D-10  .000000000000D+00
     .600000000000D+02  .356875000000D+02  .424517682865D-08 -.187761762023D+01
     .159628689289D-05  .943989725783D-03  .143982470036D-04  .515373568153D+04
     .496800000000D+06  .428408384323D-07  .364199820990D+00 -.111758708954D-07
     .959886911234D+00  .101062500000D+03 -.286066299133D+01 -.788247119371D-08
     .277868717205D-09  .100000000000D+01  .183600000000D+04  .000000000000D+00
     .240000000000D+01  .000000000000D+00  .139698386192D-08  .600000000000D+02
     .489606000000D+06  .400000000000D+01
 4 15  3 20 18  0  0.0 -.940216705203D-05 -.682121026330D-12  .000000000000D+00
     .700000000000D+02 -.103781250000D+03  .515128600031D-08  .200379603959D+01
    -.544451177120D-05  .110962749459D-01  .681355595589D-05  .515371675110D+04
     .496800000000D+06 -.502914190292D-07 -.696634753131D+00 -.255182385445D-06
     .939666488264D+00  .238031250000D+03  .105369683882D+01 -.856642825469D-08
    -.523593238331D-09  .100000000000D+01  .183600000000D+04  .000000000000D+00
     .240000000000D+01  .000000000000D+00 -.651925802231D-08  .700000000000D+02
     .489606000000D+06  .400000000000D+01
 5 15  3 20 18  0  0.0 -.264395028353D-03  .488853402203D-11  .000000000000D+00
     .150000000000D+02  .493437500000D+02  .454483216765D-08 -.114893678345D+01
     .250712037086D-05  .401556584984D-02  .134147703648D-04  .515380125427D+04
     .496800000000D+06  .614672899246D-07  .358062693857D+00 -.484287738800D-07
     .947142599445D+00  .109062500000D+03  .407837046381D+00 -.803212028434D-08
     .269296931584D-09  .100000000000D+01  .183600000000D+04  .000000000000D+00
     .240000000000D+01  .000000000000D+00 -.107102096081D-07  .150000000000D+02
     .489606000000D+06  .400000000000D+01
 6 15  3 20 18  0  0.0  .113761518151D-03  .104591890704D-10  .000000000000D+00
     .770000000000D+02 -.973125000000D+02  .455840416154D-08 -.187471579787D+01
    -.500865280628D-05  .265948008746D-03  .752694904804D-05  .515371893501D+04
     .496800000000D+06 -.372529029846D-07 -.684438466547D+00 -.298023223877D-07
     .961912953296D+00  .234531250000D+03  .297745745830D+01 -.825498671047D-08
    -.488234622646D-09  .100000000000D+01  .183600000000D+04  .000000000000D+00
     .240000000000D+01  .000000000000D+00  .465661287308D-08  .770000000000D+02
     .489606000000D+06  .400000000000D+01
 7 15  3 20 18  0  0.0  .449177343398D-03  .295585778076D-11  .000000000000D+00
     .270000000000D+02 -.106093750000D+03  .465519390751D-08  .162601622949D+01
    -.536441802979D-05  .809731357731D-02  .711716711521D-05  .515372744370D+04
     .496800000000D+06 -.447034835815D-07  .248430319338D+01  .987201929092D-07
     .970843325007D+00  .252281250000D+03 -.275522724646D+01 -.830606026646D-08
    -.694314635277D-09  .100000000000D+01  .183600000000D+04  .000000000000D+00
     .240000000000D+01  .000000000000D+00 -.111758708954D-07  .270000000000D+02
     .489606000000D+06  .400000000000D+01
 8 15  3 20 18  0  0.0  .187167897820D-04  .454747350886D-12  .000000000000D+00
     .710000000000D+02 -.121000000000D+03  .386266089533D-08 -.309678613533D+01
    -.627338886261D-05  .144814505475D-01  .949762761593D-05  .515357878113D+04
     .496800000000D+06 -.119209289551D-06  .259025991849D+01 -.175088644028D-06
     .994531181279D+00  .209093750000D+03 -.268309202578D+01 -.764817572007D-08
    -.760745973838D-09  .100000000000D+01  .183600000000D+04  .000000000000D+00
     .340000000000D+01  .630000000000D+02 -.512227416039D-08  .710000000000D+02
     .489606000000D+06  .400000000000D+01
 9 15  3 20 18  0  0.0 -.117759685963D-03 -.954969436862D-11  .000000000000D+00
     .590000000000D+02  .752812500000D+02  .522307470488D-08 -.233928873530D+01
     .398233532906D-05  .427549937740D-03  .376999378204D-05  .515362762451D+04
     .496800000000D+06 -.409781932831D-07  .140794341577D+01  .186264514923D-08
     .957659447297D+00  .307875000000D+03  .231243075311D+01 -.860464413225D-08
     .446090010011D-09  .100000000000D+01  .183600000000D+04  .000000000000D+00
     .240000000000D+01  .000000000000D+00  .465661287308D-09  .590000000000D+02
     .489606000000D+06  .400000000000D+01
11 15  3 20 18  0  0.0 -.565657392144D-03 -.261479726760D-11  .000000000000D+00
     .610000000000D+02 -.703750000000D+02  .656241620812D-08  .169261192214D+01
    -.394694507122D-05  .156381085981D-01  .256486237049D-05  .515372397804D+04
     .496800000000D+06  .558793544769D-08 -.102176088364D+01 -.376254320145D-06
     .892413267315D+00  .295156250000D+03  .138933785102D+01 -.938503378147D-08
    -.300012496725D-09  .100000000000D+01  .183600000000D+04  .000000000000D+00
     .240000000000D+01  .000000000000D+00 -.121071934700D-07  .610000000000D+02
     .489606000000D+06  .400000000000D+01
